CCSDS_OMM_VERS = 2.0
CREATION_DATE  = 
ORIGINATOR     = 

OBJECT_NAME    = ATLAS CENTAUR R/B
OBJECT_ID      = 1972-065B
CENTER_NAME    = EARTH
REF_FRAME      = TEME
TIME_SYSTEM    = UTC
MEAN_ELEMENT_THEORY = SGP/SGP4

EPOCH          = 2025-11-19T01:46:23.651904
MEAN_MOTION    = 14.77323352
ECCENTRICITY   = .00335864
INCLINATION    = 35.0013
RA_OF_ASC_NODE = 233.8200
ARG_OF_PERICENTER = 161.1907
MEAN_ANOMALY   = 199.0041

EPHEMERIS_TYPE = 0
CLASSIFICATION_TYPE = U
NORAD_CAT_ID   = 6155
ELEMENT_SET_NO = 999
REV_AT_EPOCH   = 82489
BSTAR          = .19844657E-3
MEAN_MOTION_DOT = .1422E-4
MEAN_MOTION_DDOT = 0

CCSDS_OMM_VERS = 2.0
CREATION_DATE  = 
ORIGINATOR     = 

OBJECT_NAME    = SL-8 R/B
OBJECT_ID      = 1975-112B
CENTER_NAME    = EARTH
REF_FRAME      = TEME
TIME_SYSTEM    = UTC
MEAN_ELEMENT_THEORY = SGP/SGP4

EPOCH          = 2025-11-19T04:18:11.278080
MEAN_MOTION    = 14.38124273
ECCENTRICITY   = .00159949
INCLINATION    = 74.0607
RA_OF_ASC_NODE = 222.1916
ARG_OF_PERICENTER = 336.6970
MEAN_ANOMALY   = 23.3457

EPHEMERIS_TYPE = 0
CLASSIFICATION_TYPE = U
NORAD_CAT_ID   = 8459
ELEMENT_SET_NO = 999
REV_AT_EPOCH   = 61598
BSTAR          = .11825467E-3
MEAN_MOTION_DOT = .333E-5
MEAN_MOTION_DDOT = 0

CCSDS_OMM_VERS = 2.0
CREATION_DATE  = 
ORIGINATOR     = 

OBJECT_NAME    = SL-3 R/B
OBJECT_ID      = 1977-057B
CENTER_NAME    = EARTH
REF_FRAME      = TEME
TIME_SYSTEM    = UTC
MEAN_ELEMENT_THEORY = SGP/SGP4

EPOCH          = 2025-11-19T04:59:56.043456
MEAN_MOTION    = 15.42202006
ECCENTRICITY   = .00070633
INCLINATION    = 97.5675
RA_OF_ASC_NODE = 125.6352
ARG_OF_PERICENTER = 330.9076
MEAN_ANOMALY   = 29.1776

EPHEMERIS_TYPE = 0
CLASSIFICATION_TYPE = U
NORAD_CAT_ID   = 10114
ELEMENT_SET_NO = 999
REV_AT_EPOCH   = 65128
BSTAR          = .29901672E-3
MEAN_MOTION_DOT = .12757E-3
MEAN_MOTION_DDOT = 0

CCSDS_OMM_VERS = 2.0
CREATION_DATE  = 
ORIGINATOR     = 

OBJECT_NAME    = SEASAT 1
OBJECT_ID      = 1978-064A
CENTER_NAME    = EARTH
REF_FRAME      = TEME
TIME_SYSTEM    = UTC
MEAN_ELEMENT_THEORY = SGP/SGP4

EPOCH          = 2025-11-19T02:13:22.603008
MEAN_MOTION    = 14.46023212
ECCENTRICITY   = .0002224
INCLINATION    = 108.0076
RA_OF_ASC_NODE = 253.4293
ARG_OF_PERICENTER = 253.6237
MEAN_ANOMALY   = 106.4664

EPHEMERIS_TYPE = 0
CLASSIFICATION_TYPE = U
NORAD_CAT_ID   = 10967
ELEMENT_SET_NO = 999
REV_AT_EPOCH   = 49052
BSTAR          = .17718927E-3
MEAN_MOTION_DOT = .495E-5
MEAN_MOTION_DDOT = 0

CCSDS_OMM_VERS = 2.0
CREATION_DATE  = 
ORIGINATOR     = 

OBJECT_NAME    = SL-14 R/B
OBJECT_ID      = 1979-011B
CENTER_NAME    = EARTH
REF_FRAME      = TEME
TIME_SYSTEM    = UTC
MEAN_ELEMENT_THEORY = SGP/SGP4

EPOCH          = 2025-11-19T04:14:46.695840
MEAN_MOTION    = 14.91730183
ECCENTRICITY   = .00176145
INCLINATION    = 82.5255
RA_OF_ASC_NODE = 201.3882
ARG_OF_PERICENTER = 68.5258
MEAN_ANOMALY   = 291.7838

EPHEMERIS_TYPE = 0
CLASSIFICATION_TYPE = U
NORAD_CAT_ID   = 11267
ELEMENT_SET_NO = 999
REV_AT_EPOCH   = 51230
BSTAR          = .71582781E-4
MEAN_MOTION_DOT = .748E-5
MEAN_MOTION_DDOT = 0

CCSDS_OMM_VERS = 2.0
CREATION_DATE  = 
ORIGINATOR     = 

OBJECT_NAME    = SL-8 R/B
OBJECT_ID      = 1979-089B
CENTER_NAME    = EARTH
REF_FRAME      = TEME
TIME_SYSTEM    = UTC
MEAN_ELEMENT_THEORY = SGP/SGP4

EPOCH          = 2025-11-19T06:04:00.935904
MEAN_MOTION    = 14.42260817
ECCENTRICITY   = .00148029
INCLINATION    = 74.0680
RA_OF_ASC_NODE = 295.4489
ARG_OF_PERICENTER = 139.5346
MEAN_ANOMALY   = 220.6915

EPHEMERIS_TYPE = 0
CLASSIFICATION_TYPE = U
NORAD_CAT_ID   = 11574
ELEMENT_SET_NO = 999
REV_AT_EPOCH   = 42018
BSTAR          = .12482133E-3
MEAN_MOTION_DOT = .386E-5
MEAN_MOTION_DDOT = 0

CCSDS_OMM_VERS = 2.0
CREATION_DATE  = 
ORIGINATOR     = 

OBJECT_NAME    = SL-14 R/B
OBJECT_ID      = 1980-005B
CENTER_NAME    = EARTH
REF_FRAME      = TEME
TIME_SYSTEM    = UTC
MEAN_ELEMENT_THEORY = SGP/SGP4

EPOCH          = 2025-11-19T06:02:20.984928
MEAN_MOTION    = 14.90749585
ECCENTRICITY   = .00161145
INCLINATION    = 82.5162
RA_OF_ASC_NODE = 51.9708
ARG_OF_PERICENTER = 166.6627
MEAN_ANOMALY   = 193.5021

EPHEMERIS_TYPE = 0
CLASSIFICATION_TYPE = U
NORAD_CAT_ID   = 11672
ELEMENT_SET_NO = 999
REV_AT_EPOCH   = 46003
BSTAR          = .88696523E-4
MEAN_MOTION_DOT = .898E-5
MEAN_MOTION_DDOT = 0

CCSDS_OMM_VERS = 2.0
CREATION_DATE  = 
ORIGINATOR     = 

OBJECT_NAME    = SL-8 R/B
OBJECT_ID      = 1981-003B
CENTER_NAME    = EARTH
REF_FRAME      = TEME
TIME_SYSTEM    = UTC
MEAN_ELEMENT_THEORY = SGP/SGP4

EPOCH          = 2025-11-19T06:57:31.534848
MEAN_MOTION    = 15.05913937
ECCENTRICITY   = .02820113
INCLINATION    = 82.9341
RA_OF_ASC_NODE = 31.7683
ARG_OF_PERICENTER = 201.3964
MEAN_ANOMALY   = 157.5290

EPHEMERIS_TYPE = 0
CLASSIFICATION_TYPE = U
NORAD_CAT_ID   = 12139
ELEMENT_SET_NO = 999
REV_AT_EPOCH   = 29803
BSTAR          = .70265666E-3
MEAN_MOTION_DOT = .25801E-3
MEAN_MOTION_DDOT = 0

CCSDS_OMM_VERS = 2.0
CREATION_DATE  = 
ORIGINATOR     = 

OBJECT_NAME    = SL-3 R/B
OBJECT_ID      = 1981-046B
CENTER_NAME    = EARTH
REF_FRAME      = TEME
TIME_SYSTEM    = UTC
MEAN_ELEMENT_THEORY = SGP/SGP4

EPOCH          = 2025-11-19T07:00:18.135648
MEAN_MOTION    = 15.38941372
ECCENTRICITY   = .00204146
INCLINATION    = 81.2344
RA_OF_ASC_NODE = 61.9689
ARG_OF_PERICENTER = 45.2484
MEAN_ANOMALY   = 315.0414

EPHEMERIS_TYPE = 0
CLASSIFICATION_TYPE = U
NORAD_CAT_ID   = 12465
ELEMENT_SET_NO = 999
REV_AT_EPOCH   = 42143
BSTAR          = .32764525E-3
MEAN_MOTION_DOT = .12751E-3
MEAN_MOTION_DDOT = 0

CCSDS_OMM_VERS = 2.0
CREATION_DATE  = 
ORIGINATOR     = 

OBJECT_NAME    = METEOR PRIRODA
OBJECT_ID      = 1981-065A
CENTER_NAME    = EARTH
REF_FRAME      = TEME
TIME_SYSTEM    = UTC
MEAN_ELEMENT_THEORY = SGP/SGP4

EPOCH          = 2025-11-19T07:25:19.875648
MEAN_MOTION    = 16.35075140
ECCENTRICITY   = .00068609
INCLINATION    = 97.4551
RA_OF_ASC_NODE = 28.9617
ARG_OF_PERICENTER = 263.0842
MEAN_ANOMALY   = 96.9674

EPHEMERIS_TYPE = 0
CLASSIFICATION_TYPE = U
NORAD_CAT_ID   = 12585
ELEMENT_SET_NO = 999
REV_AT_EPOCH   = 42705
BSTAR          = .52679352E-3
MEAN_MOTION_DOT = .3779882E-1
MEAN_MOTION_DDOT = .2554359E-5

CCSDS_OMM_VERS = 2.0
CREATION_DATE  = 
ORIGINATOR     = 

OBJECT_NAME    = SL-3 R/B
OBJECT_ID      = 1981-103B
CENTER_NAME    = EARTH
REF_FRAME      = TEME
TIME_SYSTEM    = UTC
MEAN_ELEMENT_THEORY = SGP/SGP4

EPOCH          = 2025-11-19T05:23:50.668800
MEAN_MOTION    = 15.19828857
ECCENTRICITY   = .00117862
INCLINATION    = 81.1587
RA_OF_ASC_NODE = 342.8879
ARG_OF_PERICENTER = 305.7542
MEAN_ANOMALY   = 54.2592

EPHEMERIS_TYPE = 0
CLASSIFICATION_TYPE = U
NORAD_CAT_ID   = 12904
ELEMENT_SET_NO = 999
REV_AT_EPOCH   = 95644
BSTAR          = .32525158E-3
MEAN_MOTION_DOT = .7006E-4
MEAN_MOTION_DDOT = 0

CCSDS_OMM_VERS = 2.0
CREATION_DATE  = 
ORIGINATOR     = 

OBJECT_NAME    = SL-3 R/B
OBJECT_ID      = 1982-013B
CENTER_NAME    = EARTH
REF_FRAME      = TEME
TIME_SYSTEM    = UTC
MEAN_ELEMENT_THEORY = SGP/SGP4

EPOCH          = 2025-11-19T06:54:39.445920
MEAN_MOTION    = 15.20791086
ECCENTRICITY   = .0022506
INCLINATION    = 81.1731
RA_OF_ASC_NODE = 290.0550
ARG_OF_PERICENTER = 187.7125
MEAN_ANOMALY   = 172.3764

EPHEMERIS_TYPE = 0
CLASSIFICATION_TYPE = U
NORAD_CAT_ID   = 13068
ELEMENT_SET_NO = 999
REV_AT_EPOCH   = 38756
BSTAR          = .1974001E-3
MEAN_MOTION_DOT = .4404E-4
MEAN_MOTION_DDOT = 0

