ATLAS CENTAUR R/B       
1 06155U 72065B   25323.07388486  .00001422  00000+0  19845-3 0  9994
2 06155  35.0013 233.8200 0033586 161.1907 199.0041 14.77323352824891
SL-8 R/B                
1 08459U 75112B   25323.17929720  .00000333  00000+0  11825-3 0  9992
2 08459  74.0607 222.1916 0015994 336.6970  23.3457 14.38124273615985
SL-3 R/B                
1 10114U 77057B   25323.20828754  .00012757  00000+0  29902-3 0  9990
2 10114  97.5675 125.6352 0007063 330.9076  29.1776 15.42202006651282
SEASAT 1                
1 10967U 78064A   25323.09262272  .00000495  00000+0  17719-3 0  9998
2 10967 108.0076 253.4293 0002224 253.6237 106.4664 14.46023212490525
SL-14 R/B               
1 11267U 79011B   25323.17692935  .00000748  00000+0  71583-4 0  9998
2 11267  82.5255 201.3882 0017614  68.5258 291.7838 14.91730183512309
SL-8 R/B                
1 11574U 79089B   25323.25278861  .00000386  00000+0  12482-3 0  9991
2 11574  74.0680 295.4489 0014802 139.5346 220.6915 14.42260817420187
SL-14 R/B               
1 11672U 80005B   25323.25163177  .00000898  00000+0  88697-4 0  9993
2 11672  82.5162  51.9708 0016114 166.6627 193.5021 14.90749585460036
SL-8 R/B                
1 12139U 81003B   25323.28994832  .00025801  00000+0  70266-3 0  9997
2 12139  82.9341  31.7683 0282011 201.3964 157.5290 15.05913937298036
SL-3 R/B                
1 12465U 81046B   25323.29187657  .00012751  00000+0  32765-3 0  9998
2 12465  81.2344  61.9689 0020414  45.2484 315.0414 15.38941372421434
METEOR PRIRODA          
1 12585U 81065A   25323.30925782  .03779882  25544-5  52679-3 0  9993
2 12585  97.4551  28.9617 0006860 263.0842  96.9674 16.35075140427053
SL-3 R/B                
1 12904U 81103B   25323.22489200  .00007006  00000+0  32525-3 0  9993
2 12904  81.1587 342.8879 0011786 305.7542  54.2592 15.19828857956447
SL-3 R/B                
1 13068U 82013B   25323.28795655  .00004404  00000+0  19740-3 0  9999
2 13068  81.1731 290.0550 0022506 187.7125 172.3764 15.20791086387566
